ONEWEB-0430             
1 50501U 21132AJ  26037.28841393  .00000019  00000+0  14543-4 0  9996
2 50501  87.9218   1.4458 0001784  91.1934 268.9402 13.18687548204375
ONEWEB-0432             
1 50502U 21132AK  26036.94124521  .00000113  00000+0  25408-3 0  9992
2 50502  87.9212   1.4837 0002734  90.8888 269.2557 13.18680980204289
ONEWEB-0440             
1 50503U 21132AL  26036.92881625  .00000071  00000+0  14800-3 0  9993
2 50503  87.9221   1.5067 0001518  73.2675 286.8623 13.18687338204276
ONEWEB-0450             
1 50504U 21132AM  26036.92234645  .00000012  00000+0 -14852-5 0  9993
2 50504  87.9215   1.5268 0001553  88.4029 271.7281 13.18688079204303
ONEWEB-0410             
1 51622U 22012A   26036.99959057 -.00000021  00000+0 -86301-4 0  9999
2 51622  87.9106  31.9079 0003052  70.9102 289.2360 13.17650570196424
ONEWEB-0411             
1 51623U 22012B   26036.98354219  .00000571  00000+0  15985-2 0  9994
2 51623  87.8751  62.4078 0002000 112.5306 247.6033 13.10371737192103
ONEWEB-0415             
1 51624U 22012C   26037.05657595  .00000705  00000+0  19834-2 0  9993
2 51624  87.8750  62.3962 0001982 101.6416 258.4934 13.10372810192117
ONEWEB-0416             
1 51625U 22012D   26037.06819049  .00000305  00000+0  83672-3 0  9997
2 51625  87.8749  62.4146 0002251 101.6961 258.4419 13.10370394192153
ONEWEB-0422             
1 51626U 22012E   26036.93376142 -.00000082  00000+0 -24419-3 0  9993
2 51626  87.9105  31.9242 0001132  87.8382 272.2880 13.17650480196523
ONEWEB-0423             
1 51627U 22012F   26037.00294767  .00000022  00000+0  22291-4 0  9994
2 51627  87.9105  31.9203 0001783  84.4207 275.7128 13.17648608196423
ONEWEB-0425             
1 51628U 22012G   26037.00178407 -.00000220  00000+0 -66552-3 0  9996
2 51628  87.8756  62.4028 0002055  86.7135 273.4228 13.10369388192146
ONEWEB-0428             
1 51629U 22012H   26036.98187909  .00000560  00000+0  15666-2 0  9994
2 51629  87.8752  62.4223 0001810  92.7779 267.3556 13.10371674192102
ONEWEB-0431             
1 51630U 22012J   26037.02819993 -.00000347  00000+0 -10304-2 0  9996
2 51630  87.8763  62.3964 0001843 114.2446 245.8874 13.10375579192162
ONEWEB-0434             
1 51631U 22012K   26037.08159728 -.00000339  00000+0 -10086-2 0  9994
2 51631  87.8749  62.4166 0002240  77.5691 282.5687 13.10370332192158
ONEWEB-0435             
1 51632U 22012L   26037.01339394 -.00000583  00000+0 -17060-2 0  9997
2 51632  87.8750  62.4203 0001437  95.8759 264.2532 13.10371646192131
ONEWEB-0436             
1 51633U 22012M   26036.99451030  .00000028  00000+0  39565-4 0  9994
2 51633  87.9107  31.9000 0001649  91.4450 268.6871 13.17648642196408
ONEWEB-0438             
1 51634U 22012N   26036.99681078 -.00000025  00000+0 -10705-3 0  9995
2 51634  87.8746  62.4248 0001984  90.9442 269.1913 13.10369277192166
