[{"OBJECT_NAME":"ONEWEB-0430","OBJECT_ID":"2021-132AJ","EPOCH":"2026-02-06T06:55:18.963552","MEAN_MOTION":13.18687548,"ECCENTRICITY":0.00017848,"INCLINATION":87.9218,"RA_OF_ASC_NODE":1.4458,"ARG_OF_PERICENTER":91.1934,"MEAN_ANOMALY":268.9402,"EPHEMERIS_TYPE":0,"CLASSIFICATION_TYPE":"U","NORAD_CAT_ID":50501,"ELEMENT_SET_NO":999,"REV_AT_EPOCH":20437,"BSTAR":1.4543094e-5,"MEAN_MOTION_DOT":1.9e-7,"MEAN_MOTION_DDOT":0},{"OBJECT_NAME":"ONEWEB-0432","OBJECT_ID":"2021-132AK","EPOCH":"2026-02-05T22:35:23.586144","MEAN_MOTION":13.1868098,"ECCENTRICITY":0.0002734,"INCLINATION":87.9212,"RA_OF_ASC_NODE":1.4837,"ARG_OF_PERICENTER":90.8888,"MEAN_ANOMALY":269.2557,"EPHEMERIS_TYPE":0,"CLASSIFICATION_TYPE":"U","NORAD_CAT_ID":50502,"ELEMENT_SET_NO":999,"REV_AT_EPOCH":20428,"BSTAR":0.00025408,"MEAN_MOTION_DOT":1.13e-6,"MEAN_MOTION_DDOT":0},{"OBJECT_NAME":"ONEWEB-0440","OBJECT_ID":"2021-132AL","EPOCH":"2026-02-05T22:17:29.724000","MEAN_MOTION":13.18687338,"ECCENTRICITY":0.0001518,"INCLINATION":87.9221,"RA_OF_ASC_NODE":1.5067,"ARG_OF_PERICENTER":73.2675,"MEAN_ANOMALY":286.8623,"EPHEMERIS_TYPE":0,"CLASSIFICATION_TYPE":"U","NORAD_CAT_ID":50503,"ELEMENT_SET_NO":999,"REV_AT_EPOCH":20427,"BSTAR":0.000148,"MEAN_MOTION_DOT":7.1e-7,"MEAN_MOTION_DDOT":0},{"OBJECT_NAME":"ONEWEB-0450","OBJECT_ID":"2021-132AM","EPOCH":"2026-02-05T22:08:10.733280","MEAN_MOTION":13.18688079,"ECCENTRICITY":0.0001553,"INCLINATION":87.9215,"RA_OF_ASC_NODE":1.5268,"ARG_OF_PERICENTER":88.4029,"MEAN_ANOMALY":271.7281,"EPHEMERIS_TYPE":0,"CLASSIFICATION_TYPE":"U","NORAD_CAT_ID":50504,"ELEMENT_SET_NO":999,"REV_AT_EPOCH":20430,"BSTAR":-1.4852e-6,"MEAN_MOTION_DOT":1.2e-7,"MEAN_MOTION_DDOT":0},{"OBJECT_NAME":"ONEWEB-0410","OBJECT_ID":"2022-012A","EPOCH":"2026-02-05T23:59:24.625248","MEAN_MOTION":13.1765057,"ECCENTRICITY":0.00030526,"INCLINATION":87.9106,"RA_OF_ASC_NODE":31.9079,"ARG_OF_PERICENTER":70.9102,"MEAN_ANOMALY":289.236,"EPHEMERIS_TYPE":0,"CLASSIFICATION_TYPE":"U","NORAD_CAT_ID":51622,"ELEMENT_SET_NO":999,"REV_AT_EPOCH":19642,"BSTAR":-8.6300796e-5,"MEAN_MOTION_DOT":-2.1e-7,"MEAN_MOTION_DDOT":0},{"OBJECT_NAME":"ONEWEB-0411","OBJECT_ID":"2022-012B","EPOCH":"2026-02-05T23:36:18.045216","MEAN_MOTION":13.10371737,"ECCENTRICITY":0.0002,"INCLINATION":87.8751,"RA_OF_ASC_NODE":62.4078,"ARG_OF_PERICENTER":112.5306,"MEAN_ANOMALY":247.6033,"EPHEMERIS_TYPE":0,"CLASSIFICATION_TYPE":"U","NORAD_CAT_ID":51623,"ELEMENT_SET_NO":999,"REV_AT_EPOCH":19210,"BSTAR":0.0015985,"MEAN_MOTION_DOT":5.71e-6,"MEAN_MOTION_DDOT":0},{"OBJECT_NAME":"ONEWEB-0415","OBJECT_ID":"2022-012C","EPOCH":"2026-02-06T01:21:28.162080","MEAN_MOTION":13.1037281,"ECCENTRICITY":0.00019829,"INCLINATION":87.875,"RA_OF_ASC_NODE":62.3962,"ARG_OF_PERICENTER":101.6416,"MEAN_ANOMALY":258.4934,"EPHEMERIS_TYPE":0,"CLASSIFICATION_TYPE":"U","NORAD_CAT_ID":51624,"ELEMENT_SET_NO":999,"REV_AT_EPOCH":19211,"BSTAR":0.0019833625,"MEAN_MOTION_DOT":7.05e-6,"MEAN_MOTION_DDOT":0},{"OBJECT_NAME":"ONEWEB-0416","OBJECT_ID":"2022-012D","EPOCH":"2026-02-06T01:38:11.658336","MEAN_MOTION":13.10370394,"ECCENTRICITY":0.0002251,"INCLINATION":87.8749,"RA_OF_ASC_NODE":62.4146,"ARG_OF_PERICENTER":101.6961,"MEAN_ANOMALY":258.4419,"EPHEMERIS_TYPE":0,"CLASSIFICATION_TYPE":"U","NORAD_CAT_ID":51625,"ELEMENT_SET_NO":999,"REV_AT_EPOCH":19215,"BSTAR":0.00083671852,"MEAN_MOTION_DOT":3.05e-6,"MEAN_MOTION_DDOT":0},{"OBJECT_NAME":"ONEWEB-0422","OBJECT_ID":"2022-012E","EPOCH":"2026-02-05T22:24:36.986688","MEAN_MOTION":13.1765048,"ECCENTRICITY":0.0001132,"INCLINATION":87.9105,"RA_OF_ASC_NODE":31.9242,"ARG_OF_PERICENTER":87.8382,"MEAN_ANOMALY":272.288,"EPHEMERIS_TYPE":0,"CLASSIFICATION_TYPE":"U","NORAD_CAT_ID":51626,"ELEMENT_SET_NO":999,"REV_AT_EPOCH":19652,"BSTAR":-0.00024419,"MEAN_MOTION_DOT":-8.2e-7,"MEAN_MOTION_DDOT":0},{"OBJECT_NAME":"ONEWEB-0423","OBJECT_ID":"2022-012F","EPOCH":"2026-02-06T00:04:14.678688","MEAN_MOTION":13.17648608,"ECCENTRICITY":0.00017831,"INCLINATION":87.9105,"RA_OF_ASC_NODE":31.9203,"ARG_OF_PERICENTER":84.4207,"MEAN_ANOMALY":275.7128,"EPHEMERIS_TYPE":0,"CLASSIFICATION_TYPE":"U","NORAD_CAT_ID":51627,"ELEMENT_SET_NO":999,"REV_AT_EPOCH":19642,"BSTAR":2.2290879e-5,"MEAN_MOTION_DOT":2.2e-7,"MEAN_MOTION_DDOT":0},{"OBJECT_NAME":"ONEWEB-0425","OBJECT_ID":"2022-012G","EPOCH":"2026-02-06T00:02:34.143648","MEAN_MOTION":13.10369388,"ECCENTRICITY":0.00020559,"INCLINATION":87.8756,"RA_OF_ASC_NODE":62.4028,"ARG_OF_PERICENTER":86.7135,"MEAN_ANOMALY":273.4228,"EPHEMERIS_TYPE":0,"CLASSIFICATION_TYPE":"U","NORAD_CAT_ID":51628,"ELEMENT_SET_NO":999,"REV_AT_EPOCH":19214,"BSTAR":-0.00066551844,"MEAN_MOTION_DOT":-2.2e-6,"MEAN_MOTION_DDOT":0},{"OBJECT_NAME":"ONEWEB-0428","OBJECT_ID":"2022-012H","EPOCH":"2026-02-05T23:33:54.353376","MEAN_MOTION":13.10371674,"ECCENTRICITY":0.000181,"INCLINATION":87.8752,"RA_OF_ASC_NODE":62.4223,"ARG_OF_PERICENTER":92.7779,"MEAN_ANOMALY":267.3556,"EPHEMERIS_TYPE":0,"CLASSIFICATION_TYPE":"U","NORAD_CAT_ID":51629,"ELEMENT_SET_NO":999,"REV_AT_EPOCH":19210,"BSTAR":0.0015666,"MEAN_MOTION_DOT":5.6e-6,"MEAN_MOTION_DDOT":0},{"OBJECT_NAME":"ONEWEB-0431","OBJECT_ID":"2022-012J","EPOCH":"2026-02-06T00:40:36.473952","MEAN_MOTION":13.10375579,"ECCENTRICITY":0.00018436,"INCLINATION":87.8763,"RA_OF_ASC_NODE":62.3964,"ARG_OF_PERICENTER":114.2446,"MEAN_ANOMALY":245.8874,"EPHEMERIS_TYPE":0,"CLASSIFICATION_TYPE":"U","NORAD_CAT_ID":51630,"ELEMENT_SET_NO":999,"REV_AT_EPOCH":19216,"BSTAR":-0.0010304406,"MEAN_MOTION_DOT":-3.47e-6,"MEAN_MOTION_DDOT":0},{"OBJECT_NAME":"ONEWEB-0434","OBJECT_ID":"2022-012K","EPOCH":"2026-02-06T01:57:30.004992","MEAN_MOTION":13.10370332,"ECCENTRICITY":0.00022403,"INCLINATION":87.8749,"RA_OF_ASC_NODE":62.4166,"ARG_OF_PERICENTER":77.5691,"MEAN_ANOMALY":282.5687,"EPHEMERIS_TYPE":0,"CLASSIFICATION_TYPE":"U","NORAD_CAT_ID":51631,"ELEMENT_SET_NO":999,"REV_AT_EPOCH":19215,"BSTAR":-0.0010086498,"MEAN_MOTION_DOT":-3.39e-6,"MEAN_MOTION_DDOT":0},{"OBJECT_NAME":"ONEWEB-0435","OBJECT_ID":"2022-012L","EPOCH":"2026-02-06T00:19:17.236416","MEAN_MOTION":13.10371646,"ECCENTRICITY":0.00014372,"INCLINATION":87.875,"RA_OF_ASC_NODE":62.4203,"ARG_OF_PERICENTER":95.8759,"MEAN_ANOMALY":264.2532,"EPHEMERIS_TYPE":0,"CLASSIFICATION_TYPE":"U","NORAD_CAT_ID":51632,"ELEMENT_SET_NO":999,"REV_AT_EPOCH":19213,"BSTAR":-0.0017060457,"MEAN_MOTION_DOT":-5.83e-6,"MEAN_MOTION_DDOT":0},{"OBJECT_NAME":"ONEWEB-0436","OBJECT_ID":"2022-012M","EPOCH":"2026-02-05T23:52:05.689920","MEAN_MOTION":13.17648642,"ECCENTRICITY":0.00016491,"INCLINATION":87.9107,"RA_OF_ASC_NODE":31.9,"ARG_OF_PERICENTER":91.445,"MEAN_ANOMALY":268.6871,"EPHEMERIS_TYPE":0,"CLASSIFICATION_TYPE":"U","NORAD_CAT_ID":51633,"ELEMENT_SET_NO":999,"REV_AT_EPOCH":19640,"BSTAR":3.9564764e-5,"MEAN_MOTION_DOT":2.8e-7,"MEAN_MOTION_DDOT":0},{"OBJECT_NAME":"ONEWEB-0438","OBJECT_ID":"2022-012N","EPOCH":"2026-02-05T23:55:24.451392","MEAN_MOTION":13.10369277,"ECCENTRICITY":0.00019845,"INCLINATION":87.8746,"RA_OF_ASC_NODE":62.4248,"ARG_OF_PERICENTER":90.9442,"MEAN_ANOMALY":269.1913,"EPHEMERIS_TYPE":0,"CLASSIFICATION_TYPE":"U","NORAD_CAT_ID":51634,"ELEMENT_SET_NO":999,"REV_AT_EPOCH":19216,"BSTAR":-0.00010705116,"MEAN_MOTION_DOT":-2.5e-7,"MEAN_MOTION_DDOT":0}]
